NORAD_CAT_ID,OBJECT_NAME,OBJECT_TYPE,EPOCH,MEAN_MOTION,ECCENTRICITY,INCLINATION,RA_OF_ASC_NODE,ARG_OF_PERICENTER,MEAN_ANOMALY,BSTAR,MEAN_MOTION_DOT,MEAN_MOTION_DDOT,TLE_LINE0,TLE_LINE1,TLE_LINE2,SEMIMAJOR_AXIS,PERIOD,APOGEE,PERIGEE,DECAYED
50199.0,STARLINK-3270,PAYLOAD,2022-05-14 14:00:01,15.08813672,0.0001896,53.2161,21.9934,49.7697,343.0625,0.0041087,0.00065665,0.0,0 STARLINK-3270,1 50199U 21125AV  22134.58334491  .00065665  00000-0  41087-2 0  9994,2 50199  53.2161  21.9934 0001896  49.7697 343.0625 15.08813672  1306,6917.9609999999975,95.439,541.138,538.514,0.0
50199.0,STARLINK-3270,PAYLOAD,2022-05-14 16:00:00,15.08834894,0.0001924,53.2164,21.6194,51.2761,74.4458,0.0025675,0.00040805,0.0,0 STARLINK-3270,1 50199U 21125AV  22134.66667824  .00040805  00000-0  25675-2 0  9996,2 50199  53.2164  21.6194 0001924  51.2761  74.4458 15.08834894 25658,6917.896,95.438,541.092,538.43,0.0
50199.0,STARLINK-3270,PAYLOAD,2022-05-14 22:00:00,15.08839331,0.0001954,53.2162,20.4987,45.0525,359.371,-0.0012119,-0.00019524,0.0,0 STARLINK-3270,1 50199U 21125AV  22134.91667824 -.00019524  00000-0 -12119-2 0  9999,2 50199  53.2162  20.4987 0001954  45.0525 359.3710 15.08839331 25696,6917.882,95.438,541.099,538.396,0.0
50199.0,STARLINK-3270,PAYLOAD,2022-05-15 14:00:01,15.08825587,0.0001727,53.2158,17.5044,47.4329,20.2389,0.001496,0.00023592,0.0,0 STARLINK-3270,1 50199U 21125AV  22135.58335648  .00023592  00000-0  14960-2 0  9993,2 50199  53.2158  17.5044 0001727  47.4329  20.2389 15.08825587 25793,6917.924,95.438,540.984,538.595,0.0
50199.0,STARLINK-3270,PAYLOAD,2022-05-15 22:00:00,15.08847136,0.0001884,53.2157,16.0098,44.083,35.119,-0.00037306,-6.222e-05,0.0,0 STARLINK-3270,1 50199U 21125AV  22135.91667824 -.00006222  00000-0 -37306-3 0  9997,2 50199  53.2157  16.0098 0001884  44.0830  35.1190 15.08847136  1309,6917.859,95.437,541.0269999999998,538.42,0.0
50199.0,STARLINK-3270,PAYLOAD,2022-05-16 14:00:01,15.08797934,0.0001789,53.2151,13.0152,43.8379,58.5033,0.0041827,0.00066835,0.0,0 STARLINK-3270,1 50199U 21125AV  22136.58334491  .00066835  00000-0  41827-2 0  9998,2 50199  53.2151  13.0152 0001789  43.8379  58.5033 15.08797934 25941,6918.009,95.44,541.112,538.636,0.0
50199.0,STARLINK-3270,PAYLOAD,2022-05-16 22:00:00,15.08843776,0.0001949,53.215,11.5207,40.2066,73.7103,-7.438e-05,-1.472e-05,0.0,0 STARLINK-3270,1 50199U 21125AV  22136.91667824 -.00001472  00000-0 -74380-4 0  9994,2 50199  53.2150  11.5207 0001949  40.2066  73.7103 15.08843776  1303,6917.869000000002,95.437,541.082,538.386,0.0
50199.0,STARLINK-3270,PAYLOAD,2022-05-17 06:00:00,15.08861569,0.000198,53.2145,10.0238,39.3574,86.1495,-0.00065376,-0.00010684,0.0,0 STARLINK-3270,1 50199U 21125AV  22137.25001157 -.00010684  00000-0 -65376-3 0  9992,2 50199  53.2145  10.0238 0001980  39.3574  86.1495 15.08861569 26043,6917.814,95.436,541.049,538.31,0.0
50199.0,STARLINK-3270,PAYLOAD,2022-05-17 14:00:01,15.08856107,0.0001872,53.2146,8.5259,46.1301,91.0649,-0.00017342,-3.048e-05,0.0,0 STARLINK-3270,1 50199U 21125AV  22137.58335648 -.00003048  00000-0 -17342-3 0  9999,2 50199  53.2146   8.5259 0001872  46.1301  91.0649 15.08856107  1303,6917.831,95.437,540.991,538.401,0.0
50199.0,STARLINK-3270,PAYLOAD,2022-05-17 22:00:01,15.08844934,0.0001952,53.2145,7.0310000000000015,40.9213,107.9198,-0.0012161,-0.00019593,0.0,0 STARLINK-3270,1 50199U 21125AV  22137.91668981 -.00019593  00000-0 -12161-2 0  9990,2 50199  53.2145   7.0310 0001952  40.9213 107.9198 15.08844934  1308,6917.865,95.437,541.081,538.38,0.0
50199.0,STARLINK-3270,PAYLOAD,2022-05-18 06:00:00,15.08857441,0.0001884,53.2142,5.534,36.9515,123.424,-0.0025984,-0.00041425,0.0,0 STARLINK-3270,1 50199U 21125AV  22138.25001157 -.00041425  00000-0 -25984-2 0  9990,2 50199  53.2142   5.5340 0001884  36.9515 123.4240 15.08857441 26197,6917.8269999999975,95.436,540.995,538.389,0.0
50199.0,STARLINK-3270,PAYLOAD,2022-05-18 14:00:01,15.08826722,0.0001730999999999,53.2145,4.0361,41.3823,130.5919,0.0029288,0.00046616,0.0,0 STARLINK-3270,1 50199U 21125AV  22138.58334491  .00046616  00000-0  29288-2 0  9992,2 50199  53.2145   4.0361 0001731  41.3823 130.5919 15.08826722  1306,6917.920999999999,95.438,540.9830000000002,538.5880000000002,0.0
50199.0,STARLINK-3270,PAYLOAD,2022-05-18 20:00:01,15.08872314,0.0001883,53.2145,2.9152,37.7406,52.9251,-0.004012,-0.00063633,0.0,0 STARLINK-3270,1 50199U 21125AV  22138.83334491 -.00063633  00000-0 -40120-2 0  9998,2 50199  53.2145   2.9152 0001883  37.7406  52.9251 15.08872314 26283,6917.781999999997,95.436,540.9490000000002,538.344,0.0
50199.0,STARLINK-3270,PAYLOAD,2022-05-19 14:00:01,15.08831023,0.0001873,53.2148,359.5464,43.4141,163.3884,-2.8252e-06,-3.33e-06,0.0,0 STARLINK-3270,1 50199U 21125AV  22139.58335648 -.00000333  00000-0 -28252-5 0  9999,2 50199  53.2148 359.5464 0001873  43.4141 163.3884 15.08831023  1309,6917.908,95.438,541.069,538.477,0.0
50199.0,STARLINK-3270,PAYLOAD,2022-05-19 22:00:00,15.08811988,0.0002143,53.215,358.0518,40.6753,177.6579,0.0013734,0.00021621,0.0,0 STARLINK-3270,1 50199U 21125AV  22139.91667824  .00021621  00000-0  13734-2 0  9997,2 50199  53.2150 358.0518 0002143  40.6753 177.6579 15.08811988 26444,6917.965999999999,95.439,541.314,538.3480000000002,0.0
50199.0,STARLINK-3270,PAYLOAD,2022-05-20 14:00:01,15.08851476,0.0001922,53.2154,355.057,43.7503,197.7512,-0.00027925,-4.731e-05,0.0,0 STARLINK-3270,1 50199U 21125AV  22140.58334491 -.00004731  00000-0 -27925-3 0  9996,2 50199  53.2154 355.0570 0001922  43.7503 197.7512 15.08851476  1308,6917.845,95.437,541.04,538.381,0.0
50199.0,STARLINK-3270,PAYLOAD,2022-05-20 22:00:00,15.08825127,0.0002096,53.2155,353.5623,37.3558,215.7589,0.0016885,0.00026676,0.0,0 STARLINK-3270,1 50199U 21125AV  22140.91667824  .00026676  00000-0  16885-2 0  9994,2 50199  53.2155 353.5623 0002096  37.3558 215.7589 15.08825127  1302,6917.926,95.438,541.241,538.341,0.0
50199.0,STARLINK-3270,PAYLOAD,2022-05-21 06:00:00,15.08871448,0.0001961,53.2155,352.0649,35.944,228.7558,-0.0038885,-0.00061698,0.0,0 STARLINK-3270,1 50199U 21125AV  22141.25001157 -.00061698  00000-0 -38885-2 0  9992,2 50199  53.2155 352.0649 0001961  35.9440 228.7558 15.08871448 26649,6917.784000000002,95.436,541.006,538.293,0.0
50199.0,STARLINK-3270,PAYLOAD,2022-05-21 14:00:01,15.08850073,0.0001855,53.2159,350.5676,40.7444,235.6214,-0.00050785,-8.364e-05,0.0,0 STARLINK-3270,1 50199U 21125AV  22141.58335648 -.00008364  00000-0 -50785-3 0  9998,2 50199  53.2159 350.5676 0001855  40.7444 235.6214 15.08850073  1309,6917.85,95.437,540.998,538.431,0.0
50199.0,STARLINK-3270,PAYLOAD,2022-05-21 22:00:00,15.08825183,0.0002107,53.2159,349.0730000000001,37.2404,250.6758,0.0017910999999999,0.00028321,0.0,0 STARLINK-3270,1 50199U 21125AV  22141.91667824  .00028321  00000-0  17911-2 0  9995,2 50199  53.2159 349.0730 0002107  37.2404 250.6758 15.08825183 26740,6917.926,95.438,541.248,538.3330000000002,0.0
50199.0,STARLINK-3270,PAYLOAD,2022-05-22 14:00:01,15.08830178,0.0001884,53.216,346.0785,42.1157,268.971,-0.00048172,-7.945e-05,0.0,0 STARLINK-3270,1 50199U 21125AV  22142.58334491 -.00007945  00000-0 -48172-3 0  9995,2 50199  53.2160 346.0785 0001884  42.1157 268.9710 15.08830178 26841,6917.91,95.438,541.0790000000002,538.472,0.0
50199.0,STARLINK-3270,PAYLOAD,2022-05-22 22:00:01,15.08817095,0.0002144,53.2158,344.584,38.9761,283.7651,0.0020872,0.00033066,0.0,0 STARLINK-3270,1 50199U 21125AV  22142.91668981  .00033066  00000-0  20872-2 0  9993,2 50199  53.2158 344.5840 0002144  38.9761 283.7651 15.08817095  1303,6917.95,95.439,541.299,538.332,0.0
50199.0,STARLINK-3270,PAYLOAD,2022-05-23 14:00:01,15.08874256,0.0001921,53.2164,341.5879,44.6185,301.2239,-0.0059478,-0.00093807,0.0,0 STARLINK-3270,1 50199U 21125AV  22143.58334491 -.00093807  00000-0 -59478-2 0  9998,2 50199  53.2164 341.5879 0001921  44.6185 301.2239 15.08874256  1305,6917.776,95.435,540.97,538.312,0.0
50199.0,STARLINK-3270,PAYLOAD,2022-05-23 16:00:00,15.08895281,0.0002026,53.2166,341.2141,43.3371,35.4026,-0.011823,-0.00183971,0.0,0 STARLINK-3270,1 50199U 21125AV  22143.66667824 -.00183971  00000-0 -11823-1 0  9999,2 50199  53.2166 341.2141 0002026  43.3371  35.4026 15.08895281 27013,6917.7109999999975,95.434,540.9780000000002,538.175,0.0
50199.0,STARLINK-3270,PAYLOAD,2022-05-23 22:00:01,15.08818562,0.0002227,53.2153,340.095,42.2682,315.2459,0.0024164,0.00038357,0.0,0 STARLINK-3270,1 50199U 21125AV  22143.91668981  .00038357  00000-0  24164-2 0  9990,2 50199  53.2153 340.0950 0002227  42.2682 315.2459 15.08818562 27049,6917.946,95.439,541.352,538.27,0.0
50199.0,STARLINK-3270,PAYLOAD,2022-05-24 14:00:01,15.08844059,0.0001947,53.215,337.1007,44.5316,336.093,-0.0010907,-0.00017607,0.0,0 STARLINK-3270,1 50199U 21125AV  22144.58334491 -.00017607  00000-0 -10907-2 0  9997,2 50199  53.2150 337.1007 0001947  44.5316 336.0930 15.08844059 27149,6917.868,95.437,541.08,538.386,0.0
50199.0,STARLINK-3270,PAYLOAD,2022-05-24 22:00:00,15.088014800000002,0.0002112,53.2147,335.606,38.9348,353.2897,0.0019582,0.00030982,0.0,0 STARLINK-3270,1 50199U 21125AV  22144.91667824  .00030982  00000-0  19582-2 0  9990,2 50199  53.2147 335.6060 0002112  38.9348 353.2897 15.08801480  1308,6917.998000000001,95.44,541.3240000000002,538.4019999999998,0.0
50199.0,STARLINK-3270,PAYLOAD,2022-05-25 14:00:01,15.0884978,0.0001959,53.2144,332.6115,42.6969,12.6704,0.00011027,1.468e-05,0.0,0 STARLINK-3270,1 50199U 21125AV  22145.58334491  .00001468  00000-0  11027-3 0  9999,2 50199  53.2144 332.6115 0001959  42.6969  12.6704 15.08849780 27308,6917.85,95.437,541.071,538.36,0.0
50199.0,STARLINK-3270,PAYLOAD,2022-05-25 20:06:54,15.08842915,0.0002108,53.2148,331.4684,44.18899999999999,315.927,4.2648e-05,3.91e-06,0.0,0 STARLINK-3270,1 50199U 21125AV  22145.83813371  .00000391  00000-0  42648-4 0  9994,2 50199  53.2148 331.4684 0002108  44.1890 315.9270 15.08842915 27813,6917.871,95.437,541.195,538.278,0.0
